NORAD_CAT_ID,OBJECT_NAME,OBJECT_TYPE,EPOCH,MEAN_MOTION,ECCENTRICITY,INCLINATION,RA_OF_ASC_NODE,ARG_OF_PERICENTER,MEAN_ANOMALY,BSTAR,MEAN_MOTION_DOT,MEAN_MOTION_DDOT,TLE_LINE0,TLE_LINE1,TLE_LINE2,SEMIMAJOR_AXIS,PERIOD,APOGEE,PERIGEE,DECAYED
55282.0,STARLINK-5330,PAYLOAD,2023-07-13 16:40:43,14.98327051,0.0003155,70.0017,330.0128,268.8807,91.1991,-4.5547e-05,-6.36e-06,0.0,0 STARLINK-5330,1 55282U 23010P   23194.69494542 -.00000636  00000-0 -45547-4 0  9996,2 55282  70.0017 330.0128 0003155 268.8807  91.1991 14.98327051 27187,6950.202,96.107,574.26,569.874,0.0
55282.0,STARLINK-5330,PAYLOAD,2023-07-14 18:18:51,14.98335708,0.0003275,70.0012,327.319,271.9727,88.1057,1.8097e-05,1.23e-06,0.0,0 STARLINK-5330,1 55282U 23010P   23195.76309761  .00000123  00000-0  18097-4 0  9992,2 55282  70.0012 327.3190 0003275 271.9727  88.1057 14.98335708 27344,6950.175,96.107,574.316,569.764,0.0
55282.0,STARLINK-5330,PAYLOAD,2023-07-14 21:31:07,14.98342311,0.0003535,70.0007,326.9821,273.9024,86.1731,5.105e-05,5.16e-06,0.0,0 STARLINK-5330,1 55282U 23010P   23195.89661145  .00000516  00000-0  51050-4 0  9995,2 55282  70.0007 326.9821 0003535 273.9024  86.1731 14.98342311 27362,6950.155,96.106,574.477,569.563,0.0
55282.0,STARLINK-5330,PAYLOAD,2023-07-15 08:44:04,14.9832266,0.0003094,70.0011,325.8042,280.2443,79.8367,2.545e-05,2.11e-06,0.0,0 STARLINK-5330,1 55282U 23010P   23196.36394641  .00000211  00000-0  25450-4 0  9999,2 55282  70.0011 325.8042 0003094 280.2443  79.8367 14.98322660 27433,6950.216,96.107,574.231,569.93,0.0
55282.0,STARLINK-5330,PAYLOAD,2023-07-16 08:46:05,14.98325961,0.0003378,70.0011,323.2792,271.2223,88.8549,2.7681e-06,-6e-07,0.0,0 STARLINK-5330,1 55282U 23010P   23197.36534664 -.00000060  00000-0  27681-5 0  9993,2 55282  70.0011 323.2792 0003378 271.2223  88.8549 14.98325961 27583,6950.205,96.107,574.418,569.723,0.0
55282.0,STARLINK-5330,PAYLOAD,2023-07-16 19:59:01,14.98333318,0.0003232,70.0013,322.1009,268.7553,91.3235,2.4418e-05,1.98e-06,0.0,0 STARLINK-5330,1 55282U 23010P   23197.83266189  .00000198  00000-0  24418-4 0  9994,2 55282  70.0013 322.1009 0003232 268.7553  91.3235 14.98333318 27654,6950.183,96.107,574.294,569.801,0.0
55282.0,STARLINK-5330,PAYLOAD,2023-07-18 10:26:14,14.98343554,0.0003264,70.0015,318.0617,269.8607,90.2178,0.00015707,1.782e-05,0.0,0 STARLINK-5330,1 55282U 23010P   23199.43488689  .00001782  00000-0  15707-3 0  9993,2 55282  70.0015 318.0617 0003264 269.8607  90.2178 14.98343554 27895,6950.151,96.106,574.285,569.747,0.0
55282.0,STARLINK-5330,PAYLOAD,2023-07-18 15:14:37,14.98353134,0.0003049,70.002,317.5581,265.6568,94.4243,0.00023989,2.772e-05,0.0,0 STARLINK-5330,1 55282U 23010P   23199.63515637  .00002772  00000-0  23989-3 0  9990,2 55282  70.0020 317.5581 0003049 265.6568  94.4243 14.98353134 27924,6950.121,96.106,574.105,569.867,0.0
55282.0,STARLINK-5330,PAYLOAD,2023-07-19 08:52:08,14.98320695,0.0003786,70.0015,315.7067,274.5312,85.5415,-0.00022905,-2.824e-05,0.0,0 STARLINK-5330,1 55282U 23010P   23200.36954555 -.00002824  00000-0 -22905-3 0  9996,2 55282  70.0015 315.7067 0003786 274.5312  85.5415 14.98320695 28032,6950.222,96.108,574.718,569.455,0.0
55282.0,STARLINK-5330,PAYLOAD,2023-07-20 13:42:33,14.98330735,0.0003613,70.0006,312.675,267.1477,92.9268,-0.00027187,-3.336e-05,0.0,0 STARLINK-5330,1 55282U 23010P   23201.57122588 -.00003336  00000-0 -27187-3 0  9999,2 55282  70.0006 312.6750 0003613 267.1477  92.9268 14.98330735 28210,6950.191,96.107,574.567,569.545,0.0
55282.0,STARLINK-5330,PAYLOAD,2023-07-21 07:20:00,14.98339729,0.0003185,70.0019,310.8255,250.2992,109.7824,0.00039387,4.611e-05,0.0,0 STARLINK-5330,1 55282U 23010P   23202.30556523  .00004611  00000-0  39387-3 0  9991,2 55282  70.0019 310.8255 0003185 250.2992 109.7824 14.98339729 28322,6950.163,96.106,574.241,569.814,0.0
55282.0,STARLINK-5330,PAYLOAD,2023-07-21 08:56:10,14.98314922,0.0003123,70.0015,310.6567,244.8382,115.2453,0.00025064,2.898e-05,0.0,0 STARLINK-5330,1 55282U 23010P   23202.37234284  .00002898  00000-0  25064-3 0  9997,2 55282  70.0015 310.6567 0003123 244.8382 115.2453 14.98314922 28335,6950.24,96.108,574.275,569.934,0.0
55282.0,STARLINK-5330,PAYLOAD,2023-07-24 05:49:57,14.98328347,0.0003205,70.0018,303.4195,256.4757,103.6045,3.8272e-05,3.64e-06,0.0,0 STARLINK-5330,1 55282U 23010P   23205.24302097  .00000364  00000-0  38272-4 0  9996,2 55282  70.0018 303.4195 0003205 256.4757 103.6045 14.98328347 29066,6950.198,96.107,574.291,569.835,0.0
55282.0,STARLINK-5330,PAYLOAD,2023-07-25 12:16:31,14.98322566,0.0003498,70.0002,300.2194,270.8537,89.2222,2.4736e-05,2.02e-06,0.0,0 STARLINK-5330,1 55282U 23010P   23206.51147585  .00000202  00000-0  24736-4 0  9997,2 55282  70.0002 300.2194 0003498 270.8537  89.2222 14.98322566 29257,6950.216,96.107,574.512,569.65,0.0
55282.0,STARLINK-5330,PAYLOAD,2023-07-26 07:30:07,14.98326578,0.0003759,69.9997,298.1986,269.1786,90.8942,0.00038209,4.469e-05,0.0,0 STARLINK-5330,1 55282U 23010P   23207.31258310  .00004469  00000-0  38209-3 0  9993,2 55282  69.9997 298.1986 0003759 269.1786  90.8942 14.98326578 29375,6950.203,96.107,574.681,569.456,0.0
55282.0,STARLINK-5330,PAYLOAD,2023-07-26 17:06:54,14.98340968,0.0003641,69.9998,297.1891,270.8718,89.2024,0.00049977,5.877e-05,0.0,0 STARLINK-5330,1 55282U 23010P   23207.71313090  .00005877  00000-0  49977-3 0  9992,2 55282  69.9998 297.1891 0003641 270.8718  89.2024 14.98340968 29130,6950.159,96.106,574.555,569.493,0.0
55282.0,STARLINK-5330,PAYLOAD,2023-07-27 17:08:56,14.98334178,0.0003196,69.9996,294.6652,272.5443,87.535,-8.7279e-06,-1.97e-06,0.0,0 STARLINK-5330,1 55282U 23010P   23208.71454659 -.00000197  00000-0 -87279-5 0  9991,2 55282  69.9996 294.6652 0003196 272.5443  87.5350 14.98334178 29289,6950.18,96.107,574.266,569.824,0.0
55282.0,STARLINK-5330,PAYLOAD,2023-07-28 07:34:09,14.98342117,0.0003443,69.9994,293.1496,269.6236,90.4528,-0.0001697,-2.118e-05,0.0,0 STARLINK-5330,1 55282U 23010P   23209.31538237 -.00002118  00000-0 -16970-3 0  9996,2 55282  69.9994 293.1496 0003443 269.6236  90.4528 14.98342117 29674,6950.155,96.106,574.413,569.627,0.0
55282.0,STARLINK-5330,PAYLOAD,2023-07-28 17:10:57,14.98336842,0.0003585,69.9992,292.1396,271.9649,88.1099,4.1632e-06,-4.3e-07,0.0,0 STARLINK-5330,1 55282U 23010P   23209.71593891 -.00000043  00000-0  41632-5 0  9996,2 55282  69.9992 292.1396 0003585 271.9649  88.1099 14.98336842 29430,6950.172,96.107,574.528,569.545,0.0
55282.0,STARLINK-5330,PAYLOAD,2023-07-29 23:37:31,14.9831858,0.0003475,70.0,288.9421,273.0627,87.0135,-7.8655e-05,-1.031e-05,0.0,0 STARLINK-5330,1 55282U 23010P   23210.98438781 -.00001031  00000-0 -78655-4 0  9996,2 55282  70.0000 288.9421 0003475 273.0627  87.0135 14.98318580 29621,6950.228,96.108,574.508,569.678,0.0
55282.0,STARLINK-5330,PAYLOAD,2023-07-30 10:50:28,14.98310064,0.0003537,69.9993,287.7634,272.7035,87.3719,-0.00017912,-2.229e-05,0.0,0 STARLINK-5330,1 55282U 23010P   23211.45171963 -.00002229  00000-0 -17912-3 0  9993,2 55282  69.9993 287.7634 0003537 272.7035  87.3719 14.98310064 29697,6950.255,96.108,574.578,569.661,0.0
55282.0,STARLINK-5330,PAYLOAD,2023-07-30 23:39:32,14.98319458,0.0003497,69.9985,286.4159,268.0555,92.0204,-9.1555e-05,-1.185e-05,0.0,0 STARLINK-5330,1 55282U 23010P   23211.98579623 -.00001185  00000-0 -91555-4 0  9992,2 55282  69.9985 286.4159 0003497 268.0555  92.0204 14.98319458 29773,6950.225,96.108,574.521,569.66,0.0
55282.0,STARLINK-5330,PAYLOAD,2023-07-31 10:52:28,14.98332696,0.0003467,69.9991,285.2383,267.2504,92.8258,1.5925e-05,9.7e-07,0.0,0 STARLINK-5330,1 55282U 23010P   23212.45310764  .00000097  00000-0  15925-4 0  9990,2 55282  69.9991 285.2383 0003467 267.2504  92.8258 14.98332696 29842,6950.185,96.107,574.459,569.64,0.0
55282.0,STARLINK-5330,PAYLOAD,2023-07-31 22:05:24,14.98341364,0.0003552,69.9991,284.0599,268.3748,91.7004,0.00010379,1.146e-05,0.0,0 STARLINK-5330,1 55282U 23010P   23212.92042086  .00001146  00000-0  10379-3 0  9994,2 55282  69.9991 284.0599 0003552 268.3748  91.7004 14.98341364 29912,6950.158,96.106,574.491,569.554,0.0
55282.0,STARLINK-5330,PAYLOAD,2023-08-01 14:06:45,14.98359918,0.0003588,70.0009,282.3771,266.9798,93.095,0.00098776,0.00011722,0.0,0 STARLINK-5330,1 55282U 23010P   23213.58802212  .00011722  00000-0  98776-3 0  9990,2 55282  70.0009 282.3771 0003588 266.9798  93.0950 14.98359918 30018,6950.1,96.105,574.459,569.472,0.0
55282.0,STARLINK-5330,PAYLOAD,2023-08-02 10:56:29,14.98345604,0.0003475,70.0009,280.1896,266.7247,93.3515,0.00010529,1.164e-05,0.0,0 STARLINK-5330,1 55282U 23010P   23214.45589596  .00001164  00000-0  10529-3 0  9993,2 55282  70.0009 280.1896 0003475 266.7247  93.3515 14.98345604 30145,6950.145,96.106,574.425,569.594,0.0
55282.0,STARLINK-5330,PAYLOAD,2023-08-03 09:22:22,14.98342242,0.0003317,69.9995,277.8323,266.2371,93.8409,-4.7718e-05,-6.63e-06,0.0,0 STARLINK-5330,1 55282U 23010P   23215.39053426 -.00000663  00000-0 -47718-4 0  9991,2 55282  69.9995 277.8323 0003317 266.2371  93.8409 14.98342242 30289,6950.155,96.106,574.325,569.715,0.0
55282.0,STARLINK-5330,PAYLOAD,2023-08-04 11:00:31,14.98327631,0.0003214,69.9996,275.1394,265.2925,94.7867,-5.1545e-05,-7.08e-06,0.0,0 STARLINK-5330,1 55282U 23010P   23216.45869857 -.00000708  00000-0 -51545-4 0  9995,2 55282  69.9996 275.1394 0003214 265.2925  94.7867 14.98327631 30440,6950.2,96.107,574.299,569.831,0.0
55282.0,STARLINK-5330,PAYLOAD,2023-08-05 11:02:31,14.98340113,0.0003312,69.9993,272.6145,264.9983,95.0798,0.00013016,1.461e-05,0.0,0 STARLINK-5330,1 55282U 23010P   23217.46008403  .00001461  00000-0  13016-3 0  9994,2 55282  69.9993 272.6145 0003312 264.9983  95.0798 14.98340113 30595,6950.162,96.106,574.329,569.725,0.0
55282.0,STARLINK-5330,PAYLOAD,2023-08-06 04:40:00,14.9832832,0.0002824,70.0003,270.7633,262.4098,97.674,0.00011917,1.329e-05,0.0,0 STARLINK-5330,1 55282U 23010P   23218.19445058  .00001329  00000-0  11917-3 0  9997,2 55282  70.0003 270.7633 0002824 262.4098  97.6740 14.98328320 30702,6950.198,96.107,574.026,570.1,0.0
